SHIYAN-1 (SY-1)         
1 28220U 04012A   26068.73650539  .00016393  00000+0  54854-3 0  9991
2 28220  97.8764 140.5238 0005873  23.6952 336.4557 15.31043463195862
STARLINK-31524          
1 59506U 24071Y   26068.42845185 -.00001710  00000+0 -52637-4 0  9995
2 59506  43.0057 334.2763 0001266 272.5503  87.5204 15.27565301108249
